NORAD_CAT_ID,OBJECT_NAME,OBJECT_TYPE,EPOCH,MEAN_MOTION,ECCENTRICITY,INCLINATION,RA_OF_ASC_NODE,ARG_OF_PERICENTER,MEAN_ANOMALY,BSTAR,MEAN_MOTION_DOT,MEAN_MOTION_DDOT,TLE_LINE0,TLE_LINE1,TLE_LINE2,SEMIMAJOR_AXIS,PERIOD,APOGEE,PERIGEE,DECAYED
49420.0,STARLINK-3110,PAYLOAD,2022-04-06 14:00:01,15.08838459,0.0002334,53.2158,182.5759,30.6101,255.6212,9.3077e-05,1.193e-05,0.0,0 STARLINK-3110,1 49420U 21104N   22096.58334491  .00001193  00000-0  93077-4 0  9997,2 49420  53.2158 182.5759 0002334  30.6101 255.6212 15.08838459  3619,6917.885,95.438,541.365,538.135,0.0
49420.0,STARLINK-3110,PAYLOAD,2022-04-06 22:00:00,15.08852692,0.0002186,53.2155,181.0784,29.4623,268.3755,-0.0020321,-0.00032496,0.0,0 STARLINK-3110,1 49420U 21104N   22096.91667824 -.00032496  00000-0 -20321-2 0  9995,2 49420  53.2155 181.0784 0002186  29.4623 268.3755 15.08852692 23427,6917.842,95.437,541.219,538.194,0.0
49420.0,STARLINK-3110,PAYLOAD,2022-04-07 14:00:01,15.08853092,0.0002282,53.2155,178.0869,28.6853,292.3524,-0.00088842,-0.00014405,0.0,0 STARLINK-3110,1 49420U 21104N   22097.58334491 -.00014405  00000-0 -88842-3 0  9993,2 49420  53.2155 178.0869 0002282  28.6853 292.3524 15.08853092  3615,6917.84,95.437,541.284,538.127,0.0
49420.0,STARLINK-3110,PAYLOAD,2022-04-07 20:00:01,15.08860516,0.0002213,53.2149,176.9638,26.9752,212.7757,-0.0017407,-0.00027901,0.0,0 STARLINK-3110,1 49420U 21104N   22097.83334491 -.00027901  00000-0 -17407-2 0  9994,2 49420  53.2149 176.9638 0002213  26.9752 212.7757 15.08860516 23561,6917.818,95.436,541.214,538.1519999999998,0.0
49420.0,STARLINK-3110,PAYLOAD,2022-04-07 22:00:00,15.08852252,0.0002133,53.2151,176.5891,27.5838,305.0734,-0.00057735,-9.468e-05,0.0,0 STARLINK-3110,1 49420U 21104N   22097.91667824 -.00009468  00000-0 -57735-3 0  9999,2 49420  53.2151 176.5891 0002133  27.5838 305.0734 15.08852252  3561,6917.843000000003,95.437,541.184,538.232,0.0
49420.0,STARLINK-3110,PAYLOAD,2022-04-08 06:00:00,15.08872451,0.0002021,53.2152,175.0924,29.7524,314.5042,-0.00045331,-7.502e-05,0.0,0 STARLINK-3110,1 49420U 21104N   22098.25001157 -.00007502  00000-0 -45331-3 0  9994,2 49420  53.2152 175.0924 0002021  29.7524 314.5042 15.08872451 23624,6917.781,95.436,541.044,538.248,0.0
49420.0,STARLINK-3110,PAYLOAD,2022-04-08 14:00:03,15.08837144,0.0002263,53.2151,173.5976,26.6319,329.3826,0.00089406,0.00013969,0.0,0 STARLINK-3110,1 49420U 21104N   22098.58336806  .00013969  00000-0  89406-3 0  9995,2 49420  53.2151 173.5976 0002263  26.6319 329.3826 15.08837144  3610,6917.889,95.438,541.32,538.189,0.0
49420.0,STARLINK-3110,PAYLOAD,2022-04-08 22:00:00,15.08841731,0.0002189,53.2148,172.0999,28.2767,339.214,-0.0013554,-0.00021796,0.0,0 STARLINK-3110,1 49420U 21104N   22098.91667824 -.00021796  00000-0 -13554-2 0  9998,2 49420  53.2148 172.0999 0002189  28.2767 339.2140 15.08841731 23727,6917.875,95.437,541.254,538.226,0.0
49420.0,STARLINK-3110,PAYLOAD,2022-04-09 14:00:01,15.08791718,0.0002312,53.2149,169.1086,26.5451,4.1118,0.0025697,0.00040793,0.0,0 STARLINK-3110,1 49420U 21104N   22099.58334491  .00040793  00000-0  25697-2 0  9990,2 49420  53.2149 169.1086 0002312  26.5451   4.1118 15.08791718  3619,6918.028,95.441,541.492,538.294,0.0
49420.0,STARLINK-3110,PAYLOAD,2022-04-09 22:00:00,15.08831896,0.0002201,53.2148,167.6106,27.6789,14.5473,0.00015528,2.183e-05,0.0,0 STARLINK-3110,1 49420U 21104N   22099.91667824  .00002183  00000-0  15528-3 0  9990,2 49420  53.2148 167.6106 0002201  27.6789  14.5473 15.08831896 23889,6917.905,95.438,541.293,538.248,0.0
49420.0,STARLINK-3110,PAYLOAD,2022-04-10 14:00:01,15.08842934,0.0002413,53.2151,164.6195,26.6808,38.7345,0.0001769,2.528e-05,0.0,0 STARLINK-3110,1 49420U 21104N   22100.58334491  .00002528  00000-0  17690-3 0  9992,2 49420  53.2151 164.6195 0002413  26.6808  38.7345 15.08842934  3614,6917.871,95.437,541.406,538.067,0.0
49420.0,STARLINK-3110,PAYLOAD,2022-04-10 22:00:00,15.08849835,0.0002291,53.2152,163.1213,28.2245,48.8119,-0.002611,-0.00041616,0.0,0 STARLINK-3110,1 49420U 21104N   22100.91667824 -.00041616  00000-0 -26110-2 0  9997,2 49420  53.2152 163.1213 0002291  28.2245  48.8119 15.08849835  3604,6917.85,95.437,541.3,538.13,0.0
49420.0,STARLINK-3110,PAYLOAD,2022-04-11 06:00:00,15.08834881,0.0002335,53.2154,161.6249,31.5767,57.0361,-0.00011213,-2.072e-05,0.0,0 STARLINK-3110,1 49420U 21104N   22101.25001157 -.00002072  00000-0 -11213-3 0  9998,2 49420  53.2154 161.6249 0002335  31.5767  57.0361 15.08834881 24084,6917.896,95.438,541.376,538.146,0.0
49420.0,STARLINK-3110,PAYLOAD,2022-04-11 14:00:01,15.08814097,0.0002534,53.2156,160.1303,27.9848,72.2087,0.0014930999999999,0.00023538,0.0,0 STARLINK-3110,1 49420U 21104N   22101.58334491  .00023538  00000-0  14931-2 0  9991,2 49420  53.2156 160.1303 0002534  27.9848  72.2087 15.08814097  3607,6917.96,95.439,541.578,538.072,0.0
49420.0,STARLINK-3110,PAYLOAD,2022-04-11 22:00:00,15.08809766,0.0002331,53.2158,158.6322,28.3651,83.4093,0.00025967,3.844e-05,0.0,0 STARLINK-3110,1 49420U 21104N   22101.91667824  .00003844  00000-0  25967-3 0  9997,2 49420  53.2158 158.6322 0002331  28.3651  83.4093 15.08809766 24188,6917.973000000001,95.439,541.45,538.225,0.0
49420.0,STARLINK-3110,PAYLOAD,2022-04-12 14:00:01,15.08797866,0.0002582,53.216,155.6413,27.5132,107.394,0.0034101999999999,0.00054343,0.0,0 STARLINK-3110,1 49420U 21104N   22102.58334491  .00054343  00000-0  34102-2 0  9992,2 49420  53.2160 155.6413 0002582  27.5132 107.3940 15.08797866  3611,6918.009,95.44,541.66,538.0880000000002,0.0
49420.0,STARLINK-3110,PAYLOAD,2022-04-12 22:00:00,15.08819288,0.0002389,53.2161,154.1433,29.5154,116.9625,0.0010084,0.00015788,0.0,0 STARLINK-3110,1 49420U 21104N   22102.91667824  .00015788  00000-0  10084-2 0  9991,2 49420  53.2161 154.1433 0002389  29.5154 116.9625 15.08819288  3595,6917.944,95.439,541.461,538.156,0.0
49420.0,STARLINK-3110,PAYLOAD,2022-04-13 04:00:00,15.08804328,0.0002366,53.2169,153.0218,30.1655,35.0,0.0093053,0.00150848,0.0,0 STARLINK-3110,1 49420U 21104N   22103.16667824  .00150848  00000-0  93053-2 0  9993,2 49420  53.2169 153.0218 0002366  30.1655  35.0000 15.08804328 24377,6917.989000000001,95.44,541.491,538.2180000000002,0.0
49420.0,STARLINK-3110,PAYLOAD,2022-04-13 14:00:03,15.08821327,0.0002636,53.216,151.15200000000004,28.5273,141.2593,0.0035044,0.000559,0.0,0 STARLINK-3110,1 49420U 21104N   22103.58336806  .00055900  00000-0  35044-2 0  9991,2 49420  53.2160 151.1520 0002636  28.5273 141.2593 15.08821327 24432,6917.937,95.439,541.626,537.979,0.0
49420.0,STARLINK-3110,PAYLOAD,2022-04-13 22:00:00,15.08840908,0.0002421,53.216,149.654,30.94,150.3234,0.0017319,0.00027384,0.0,0 STARLINK-3110,1 49420U 21104N   22103.91667824  .00027384  00000-0  17319-2 0  9995,2 49420  53.2160 149.6540 0002421  30.9400 150.3234 15.08840908  3613,6917.878000000002,95.437,541.4169999999998,538.068,0.0
49420.0,STARLINK-3110,PAYLOAD,2022-04-14 06:00:00,15.08870779,0.000245,53.2161,148.1583,32.2401,160.6188,-0.001523,-0.00024467,0.0,0 STARLINK-3110,1 49420U 21104N   22104.25001157 -.00024467  00000-0 -15230-2 0  9995,2 49420  53.2161 148.1583 0002450  32.2401 160.6188 15.08870779 24538,6917.786,95.436,541.346,537.956,0.0
49420.0,STARLINK-3110,PAYLOAD,2022-04-14 14:00:01,15.08843512,0.0002609,53.2156,146.6629,28.449,176.03599999999997,-0.00017116,-3.012e-05,0.0,0 STARLINK-3110,1 49420U 21104N   22104.58334491 -.00003012  00000-0 -17116-3 0  9990,2 49420  53.2156 146.6629 0002609  28.4490 176.0360 15.08843512  3600,6917.87,95.437,541.54,537.93,0.0
49420.0,STARLINK-3110,PAYLOAD,2022-04-14 22:00:00,15.08821983,0.0002372,53.2154,145.1647,29.9702,186.1277,0.0020326,0.00032194,0.0,0 STARLINK-3110,1 49420U 21104N   22104.91667824  .00032194  00000-0  20326-2 0  9993,2 49420  53.2154 145.1647 0002372  29.9702 186.1277 15.08821983  3608,6917.935,95.439,541.441,538.16,0.0
49420.0,STARLINK-3110,PAYLOAD,2022-04-15 06:00:00,15.08865609,0.0002429,53.2154,143.6691,31.4968,196.1907,-0.00096533,-0.0001563,0.0,0 STARLINK-3110,1 49420U 21104N   22105.25001157 -.00015630  00000-0 -96533-3 0  9994,2 49420  53.2154 143.6691 0002429  31.4968 196.1907 15.08865609 24680,6917.802,95.436,541.347,537.987,0.0
49420.0,STARLINK-3110,PAYLOAD,2022-04-15 14:00:01,15.08850754,0.000259,53.2148,142.1736,28.7663,210.5417,0.001637,0.00025869,0.0,0 STARLINK-3110,1 49420U 21104N   22105.58334491  .00025869  00000-0  16370-2 0  9993,2 49420  53.2148 142.1736 0002590  28.7663 210.5417 15.08850754  3608,6917.848000000001,95.437,541.504,537.9209999999998,0.0
49420.0,STARLINK-3110,PAYLOAD,2022-04-15 22:00:00,15.08825825,0.0002351,53.2146,140.6752,29.9489,220.984,0.001809,0.00028609,0.0,0 STARLINK-3110,1 49420U 21104N   22105.91667824  .00028609  00000-0  18090-2 0  9995,2 49420  53.2146 140.6752 0002351  29.9489 220.9840 15.08825825  3584,6917.924,95.438,541.415,538.1619999999998,0.0
49420.0,STARLINK-3110,PAYLOAD,2022-04-16 14:00:01,15.08802224,0.0002544,53.214,137.6841,25.9534,248.1459,0.0018288,0.00028908,0.0,0 STARLINK-3110,1 49420U 21104N   22106.58334491  .00028908  00000-0  18288-2 0  9991,2 49420  53.2140 137.6841 0002544  25.9534 248.1459 15.08802224 24886,6917.996,95.44,541.621,538.101,0.0
49420.0,STARLINK-3110,PAYLOAD,2022-04-16 22:00:01,15.08796431,0.000236,53.2139,136.1857,29.1186,256.6157,0.0026819,0.00042603,0.0,0 STARLINK-3110,1 49420U 21104N   22106.91668981  .00042603  00000-0  26819-2 0  9999,2 49420  53.2139 136.1857 0002360  29.1186 256.6157 15.08796431  3596,6918.014,95.44,541.511,538.246,0.0
49420.0,STARLINK-3110,PAYLOAD,2022-04-17 06:00:00,15.08836562,0.0002486,53.214,134.6903,29.9207,267.3089,-0.0014995999999999,-0.00024074,0.0,0 STARLINK-3110,1 49420U 21104N   22107.25001157 -.00024074  00000-0 -14996-2 0  9990,2 49420  53.2140 134.6903 0002486  29.9207 267.3089 15.08836562 24983,6917.891,95.438,541.476,538.036,0.0
